IRIDIUM 171             
1 43929U 19002H   24249.54664894  .00000324  00000+0  10851-3 0  9992
2 43929  86.3916 265.2696 0002289  98.6277 261.5178 14.34220930295844
IRIDIUM 170             
1 43930U 19002J   24249.52979589  .00001087  00000+0  16850-3 0  9994
2 43930  86.6038 265.0821 0002532  91.0162 269.1345 14.72251394303674
IRIDIUM 167             
1 43931U 19002K   24249.54031186  .00000148  00000+0  45664-4 0  9992
2 43931  86.3908 265.0542 0002203  94.6477 265.4970 14.34218115295845
IRIDIUM 181             
1 56726U 23068S   24248.61318588  .00001573  00000+0  45870-3 0  9997
2 56726  86.8661 323.0620 0001954 100.4688 259.6733 14.43591808 68591
IRIDIUM 177             
1 56727U 23068T   24249.60342382  .00001394  00000+0  17993-3 0  9993
2 56727  86.1926 277.1733 0001861  91.3452 268.7982 14.80229003 70278
IRIDIUM 174             
1 56728U 23068U   24249.12474905  .00002331  00000+0  30297-3 0  9992
2 56728  86.1927 277.5110 0001824 105.9424 254.1998 14.80278003 70206
IRIDIUM 178             
1 56729U 23068V   24249.59265307  .00004578  00000+0  59862-3 0  9992
2 56729  86.5755 298.5770 0002129 101.5004 258.6456 14.80251209 70274
IRIDIUM 179             
1 56730U 23068W   24249.18180145  .00004738  00000+0  61997-3 0  9995
2 56730  86.6774 303.8979 0002047  88.9573 271.1883 14.80232314 70211
